NORAD_CAT_ID,OBJECT_NAME,OBJECT_TYPE,EPOCH,MEAN_MOTION,ECCENTRICITY,INCLINATION,RA_OF_ASC_NODE,ARG_OF_PERICENTER,MEAN_ANOMALY,BSTAR,MEAN_MOTION_DOT,MEAN_MOTION_DDOT,TLE_LINE0,TLE_LINE1,TLE_LINE2,SEMIMAJOR_AXIS,PERIOD,APOGEE,PERIGEE,DECAYED
52846.0,STARLINK-4212,PAYLOAD,2023-03-02 19:51:06,15.08867556,0.0001109,53.2155,305.0689,87.0133,273.0986,0.0010365,0.00016259,0.0,0 STARLINK-4212,1 52846U 22062S   23061.82716189  .00016259  00000-0  10365-2 0  9991,2 52846  53.2155 305.0689 0001109  87.0133 273.0986 15.08867556 39291,6917.796,95.436,540.428,538.894,0.0
52846.0,STARLINK-4212,PAYLOAD,2023-03-03 22:52:39,15.08885076,0.0001124,53.2158,300.0131,93.5699,266.5421,0.0019445,0.00030833,0.0,0 STARLINK-4212,1 52846U 22062S   23062.95322960  .00030833  00000-0  19445-2 0  9998,2 52846  53.2158 300.0131 0001124  93.5699 266.5421 15.08885076 39958,6917.743,95.435,540.385,538.83,0.0
52846.0,STARLINK-4212,PAYLOAD,2023-03-04 02:03:24,15.08890167,0.000105,53.2157,299.4189,93.9292,266.182,0.0017936,0.00028412,0.0,0 STARLINK-4212,1 52846U 22062S   23063.08570543  .00028412  00000-0  17936-2 0  9998,2 52846  53.2157 299.4189 0001050  93.9292 266.1820 15.08890167 39486,6917.727,95.434,540.318,538.866,0.0
52846.0,STARLINK-4212,PAYLOAD,2023-03-05 06:40:22,15.08831218,9.44e-05,53.2148,294.0649,85.7097,274.4003,0.0017011,0.00026882,0.0,0 STARLINK-4212,1 52846U 22062S   23064.27804075  .00026882  00000-0  17011-2 0  9993,2 52846  53.2148 294.0649 0000944  85.7097 274.4003 15.08831218 40154,6917.907,95.438,540.425,539.119,0.0
52846.0,STARLINK-4212,PAYLOAD,2023-03-05 20:58:51,15.08833489,0.0001093,53.2148,291.3896,80.7074,279.4041,0.0014006,0.00022069,0.0,0 STARLINK-4212,1 52846U 22062S   23064.87420486  .00022069  00000-0  14006-2 0  9993,2 52846  53.2148 291.3896 0001093  80.7074 279.4041 15.08833489 40243,6917.9,95.438,540.521,539.009,0.0
52846.0,STARLINK-4212,PAYLOAD,2023-03-06 20:49:37,15.08848244,9.63e-05,53.2169,286.9268,97.1267,262.9835,0.00062197,9.627e-05,0.0,0 STARLINK-4212,1 52846U 22062S   23065.86780077  .00009627  00000-0  62197-3 0  9998,2 52846  53.2169 286.9268 0000963  97.1267 262.9835 15.08848244 40399,6917.855,95.437,540.386,539.054,0.0
52846.0,STARLINK-4212,PAYLOAD,2023-03-07 14:18:52,15.08843144,0.0001733,53.2162,283.6562,94.4118,265.7072,0.00025774,3.817e-05,0.0,0 STARLINK-4212,1 52846U 22062S   23066.59644208  .00003817  00000-0  25774-3 0  9999,2 52846  53.2162 283.6562 0001733  94.4118 265.7072 15.08843144 40505,6917.871,95.437,540.935,538.537,0.0
52846.0,STARLINK-4212,PAYLOAD,2023-03-08 14:09:39,15.08841478,0.000172,53.2134,279.1954,80.3356,279.7831,0.00026494,3.931e-05,0.0,0 STARLINK-4212,1 52846U 22062S   23067.59004299  .00003931  00000-0  26494-3 0  9997,2 52846  53.2134 279.1954 0001720  80.3356 279.7831 15.08841478 40655,6917.876,95.437,540.931,538.551,0.0
52846.0,STARLINK-4212,PAYLOAD,2023-03-08 20:31:12,15.08841527,0.0001578,53.2075,278.0036,86.8987,273.2186,0.0002008,2.909e-05,0.0,0 STARLINK-4212,1 52846U 22062S   23067.85500286  .00002909  00000-0  20080-3 0  9992,2 52846  53.2075 278.0036 0001578  86.8987 273.2186 15.08841527 40208,6917.876,95.437,540.832,538.649,0.0
52846.0,STARLINK-4212,PAYLOAD,2023-03-09 20:21:59,15.08848628,0.000121,53.2119,273.5445,78.444,281.6688,0.00025341,3.748e-05,0.0,0 STARLINK-4212,1 52846U 22062S   23068.84860115  .00003748  00000-0  25341-3 0  9999,2 52846  53.2119 273.5445 0001210  78.4440 281.6688 15.08848628 40350,6917.854,95.437,540.556,538.882,0.0
52846.0,STARLINK-4212,PAYLOAD,2023-03-09 23:32:45,15.08851073,0.0001145,53.2112,272.9481,82.3095,277.8027,0.00037788,5.733e-05,0.0,0 STARLINK-4212,1 52846U 22062S   23068.98108009  .00005733  00000-0  37788-3 0  9995,2 52846  53.2112 272.9481 0001145  82.3095 277.8027 15.08851073 40861,6917.847,95.437,540.504,538.919,0.0
52846.0,STARLINK-4212,PAYLOAD,2023-03-10 20:12:46,15.08840503,0.0001404,53.2126,269.0837,95.9691,264.1461,5.679e-05,6.16e-06,0.0,0 STARLINK-4212,1 52846U 22062S   23069.84220292  .00000616  00000-0  56790-4 0  9990,2 52846  53.2126 269.0837 0001404  95.9691 264.1461 15.08840503 40999,6917.879,95.438,540.715,538.773,0.0
52846.0,STARLINK-4212,PAYLOAD,2023-03-11 05:45:13,15.08650365,0.0001124,53.2175,267.3006,97.7694,262.3426,-0.0032748,-0.00051763,0.0,0 STARLINK-4212,1 52846U 22062S   23070.23973391 -.00051763  00000-0 -32748-2 0  9996,2 52846  53.2175 267.3006 0001124  97.7694 262.3426 15.08650365 41058,6918.46,95.45,541.103,539.547,0.0
52846.0,STARLINK-4212,PAYLOAD,2023-03-11 12:06:54,15.08483113,7.27e-05,53.2155,266.1085,162.7436,197.3581,-0.0057421,-0.00089656,0.0,0 STARLINK-4212,1 52846U 22062S   23070.50479655 -.00089656  00000-0 -57421-2 0  9997,2 52846  53.2155 266.1085 0000727 162.7436 197.3581 15.08483113 40609,6918.971,95.46,541.339,540.333,0.0
52846.0,STARLINK-4212,PAYLOAD,2023-03-11 18:28:38,15.08322292,9.41e-05,53.2148,264.922,90.2603,269.8497,-0.0077262,-0.0011951,0.0,0 STARLINK-4212,1 52846U 22062S   23070.76988613 -.00119510  00000-0 -77262-2 0  9992,2 52846  53.2148 264.9220 0000941  90.2603 269.8497 15.08322292 41137,6919.463,95.47,541.979,540.677,0.0
52846.0,STARLINK-4212,PAYLOAD,2023-03-11 20:04:03,15.08309994,9.53e-05,53.2149,264.625,86.0592,274.0509,-0.0075683,-0.00117074,0.0,0 STARLINK-4212,1 52846U 22062S   23070.83615168 -.00117074  00000-0 -75683-2 0  9990,2 52846  53.2149 264.6250 0000953  86.0592 274.0509 15.08309994 40653,6919.501,95.471,542.025,540.706,0.0
52846.0,STARLINK-4212,PAYLOAD,2023-03-12 04:01:11,15.08238476,0.0001019,53.215,263.1389,108.4448,251.6655,-0.0068415,-0.00105819,0.0,0 STARLINK-4212,1 52846U 22062S   23071.16749410 -.00105819  00000-0 -68415-2 0  9994,2 52846  53.2150 263.1389 0001019 108.4448 251.6655 15.08238476 41194,6919.72,95.476,542.29,540.879,0.0
52846.0,STARLINK-4212,PAYLOAD,2023-03-12 11:58:20,15.08183897,9.65e-05,53.2147,261.6526,109.2472,250.8625,-0.0056299,-0.00087226,0.0,0 STARLINK-4212,1 52846U 22062S   23071.49884973 -.00087226  00000-0 -56299-2 0  9992,2 52846  53.2147 261.6526 0000965 109.2472 250.8625 15.08183897 41241,6919.887,95.479,542.419,541.084,0.0
52846.0,STARLINK-4212,PAYLOAD,2023-03-12 21:30:54,15.0821242,0.000113,53.2152,259.8701,103.9848,256.127,-0.00032667,-5.393e-05,0.0,0 STARLINK-4212,1 52846U 22062S   23071.89646305 -.00005393  00000-0 -32667-3 0  9990,2 52846  53.2152 259.8701 0001130 103.9848 256.1270 15.08212420 40816,6919.799,95.477,542.446,540.882,0.0
52846.0,STARLINK-4212,PAYLOAD,2023-03-12 23:06:16,15.08306123,0.0001202,53.2151,259.5728,87.206,272.907,-0.00019872,-3.402e-05,0.0,0 STARLINK-4212,1 52846U 22062S   23071.96269071 -.00003402  00000-0 -19872-3 0  9991,2 52846  53.2151 259.5728 0001202  87.2060 272.9070 15.08306123 41315,6919.513,95.471,542.209,540.546,0.0
52846.0,STARLINK-4212,PAYLOAD,2023-03-13 11:49:31,15.08471945,9.48e-05,53.2149,257.1945,64.827,295.2821,0.0044674,0.00070808,0.0,0 STARLINK-4212,1 52846U 22062S   23072.49272578  .00070808  00000-0  44674-2 0  9995,2 52846  53.2149 257.1945 0000948  64.8270 295.2821 15.08471945 41392,6919.006,95.461,541.527,540.215,0.0
52846.0,STARLINK-4212,PAYLOAD,2023-03-13 21:21:54,15.08606463,0.0001377,53.2147,255.4116,79.0808,281.0339,0.0067611,0.00108278,0.0,0 STARLINK-4212,1 52846U 22062S   23072.89021472  .00108278  00000-0  67611-2 0  9993,2 52846  53.2147 255.4116 0001377  79.0808 281.0339 15.08606463 41452,6918.594,95.452,541.412,539.507,0.0
52846.0,STARLINK-4212,PAYLOAD,2023-03-14 00:32:41,15.08636598,0.0001055,53.2143,254.8136,97.0529,263.0583,0.0066172,0.00106021,0.0,0 STARLINK-4212,1 52846U 22062S   23073.02270510  .00106021  00000-0  66172-2 0  9993,2 52846  53.2143 254.8136 0001055  97.0529 263.0583 15.08636598 41471,6918.502,95.45,541.097,539.637,0.0
52846.0,STARLINK-4212,PAYLOAD,2023-03-14 11:40:25,15.08712747,0.0001329,53.2137,252.7319,97.3088,262.8056,0.0050666,0.00080992,0.0,0 STARLINK-4212,1 52846U 22062S   23073.48641113  .00080992  00000-0  50666-2 0  9993,2 52846  53.2137 252.7319 0001329  97.3088 262.8056 15.08712747 41542,6918.269,95.446,541.054,539.215,0.0
52846.0,STARLINK-4212,PAYLOAD,2023-03-14 21:12:43,15.08781276,0.0001057,53.2144,250.9493,80.5248,279.5863,0.0034844,0.00055514,0.0,0 STARLINK-4212,1 52846U 22062S   23073.88383863  .00055514  00000-0  34844-2 0  9994,2 52846  53.2144 250.9493 0001057  80.5248 279.5863 15.08781276 41604,6918.06,95.441,540.656,539.194,0.0
52846.0,STARLINK-4212,PAYLOAD,2023-03-15 05:09:37,15.08830821,8.29e-05,53.2144,249.4624,85.9064,274.2023,0.0008871,0.00013855,0.0,0 STARLINK-4212,1 52846U 22062S   23074.21501205  .00013855  00000-0  88710-3 0  9998,2 52846  53.2144 249.4624 0000829  85.9064 274.2023 15.08830821 41650,6917.908,95.438,540.347,539.2,0.0
52846.0,STARLINK-4212,PAYLOAD,2023-03-15 11:31:09,15.08840861,0.0001156,53.2144,248.2734,70.9828,289.1289,0.00047637,7.302e-05,0.0,0 STARLINK-4212,1 52846U 22062S   23074.47996947  .00007302  00000-0  47637-3 0  9990,2 52846  53.2144 248.2734 0001156  70.9828 289.1289 15.08840861 41200,6917.878,95.438,540.542,538.943,0.0
52846.0,STARLINK-4212,PAYLOAD,2023-03-15 14:41:55,15.08847913,0.0001023,53.2144,247.6784,94.6745,265.4363,0.0003132,4.701e-05,0.0,0 STARLINK-4212,1 52846U 22062S   23074.61244453  .00004701  00000-0  31320-3 0  9996,2 52846  53.2144 247.6784 0001023  94.6745 265.4363 15.08847913 41713,6917.856,95.437,540.429,539.014,0.0
52846.0,STARLINK-4212,PAYLOAD,2023-03-15 21:03:27,15.0885683,0.0001513,53.2135,246.4911,72.4075,287.7082,0.00046759,7.165e-05,0.0,0 STARLINK-4212,1 52846U 22062S   23074.87740130  .00007165  00000-0  46759-3 0  9996,2 52846  53.2135 246.4911 0001513  72.4075 287.7082 15.08856830 41269,6917.829,95.436,540.741,538.647,0.0
52846.0,STARLINK-4212,PAYLOAD,2023-03-16 11:21:56,15.08825516,9.45e-05,53.2138,243.8121,96.8395,263.2705,-0.00041788,-6.929e-05,0.0,0 STARLINK-4212,1 52846U 22062S   23075.47356764 -.00006929  00000-0 -41788-3 0  9995,2 52846  53.2138 243.8121 0000945  96.8395 263.2705 15.08825516 41841,6917.925,95.438,540.443,539.136,0.0
